     3.00           N                   E                   RINEX VERSION / TYPE
BRD_USR             ESA                 20190105 021856  UTCPGM / RUN BY / DATE
 GAL   4.1500E+01 -7.8125E-03 -2.7466E-04  0.0000E+00       IONOSPHERIC CORR
GAUT -9.3132257462E-10 0.000000000E+00 432000 2034 GSTB   0 TIME SYSTEM CORR
GPGA -3.2014213502E-09-1.332267630E-15 518400 2034 GSTB   0 TIME SYSTEM CORR
                                                            END OF HEADER
E05 2019 01 05 00 10 00 1.305952901021E-04-6.608047442569E-12 0.000000000000E+00
     9.700000000000E+01 1.840625000000E+01 3.729083902741E-09-2.774109339303E+00
     8.530914783478E-07 1.520987134427E-04 3.881752490997E-06 5.440606374741E+03
     5.190000000000E+05-1.862645149231E-08 1.365480365007E+00 3.725290298462E-08
     9.521701032153E-01 2.503125000000E+02 1.528603500403E+00-5.825242644738E-09
     3.228705917133E-10 2.580000000000E+02 2.034000000000E+03 0.000000000000E+00
     3.120000000000E+00 0.000000000000E+00-1.164153218269E-09 0.000000000000E+00
     5.197000000000E+05 0.000000000000E+00 0.000000000000E+00 0.000000000000E+00
E07 2019 01 05 00 10 00-1.065789256245E-04-7.176481631177E-12 0.000000000000E+00
     9.700000000000E+01 1.503125000000E+01 3.708011596424E-09 2.560821689668E+00
     7.729977369308E-07 1.474902965128E-04 3.973022103310E-06 5.440601848602E+03
     5.190000000000E+05 1.117587089539E-08 1.365499045008E+00 2.048909664154E-08
     9.522017212637E-01 2.498125000000E+02 1.189707463291E-01-5.778812139293E-09
     2.571535686212E-10 2.580000000000E+02 2.034000000000E+03 0.000000000000E+00
     3.120000000000E+00 0.000000000000E+00 2.328306436539E-10 0.000000000000E+00
     5.197000000000E+05 0.000000000000E+00 0.000000000000E+00 0.000000000000E+00
E09 2019 01 05 00 10 00 6.567836680915E-03-1.138289462688E-11 0.000000000000E+00
     9.700000000000E+01 2.228125000000E+01 3.581577758518E-09-6.188206878170E-01
     1.166015863419E-06 2.544405870140E-04 4.196539521217E-06 5.440604526520E+03
     5.190000000000E+05-1.862645149231E-08 1.356846421460E+00-3.166496753693E-08
     9.581727091794E-01 2.466250000000E+02 1.570264974468E-01-5.711309327530E-09
     3.710868858297E-10 2.580000000000E+02 2.034000000000E+03 0.000000000000E+00
     3.120000000000E+00 0.000000000000E+00-3.259629011154E-09 0.000000000000E+00
     5.197000000000E+05 0.000000000000E+00 0.000000000000E+00 0.000000000000E+00
E12 2019 01 05 00 10 00 5.871182074770E-03 8.422773589700E-11 0.000000000000E+00
     9.700000000000E+01-2.157500000000E+02 2.656182069216E-09-2.938159739472E+00
    -1.011975109577E-05 3.653272287920E-04 4.315748810768E-06 5.440611686707E+03
     5.190000000000E+05 5.401670932770E-08-7.397077661290E-01-1.862645149231E-09
     9.820169177463E-01 2.602500000000E+02-9.076484385150E-01-5.539159299647E-09
    -4.225175995540E-10 2.580000000000E+02 2.034000000000E+03 0.000000000000E+00
     3.120000000000E+00 0.000000000000E+00-1.559965312481E-08 0.000000000000E+00
     5.197000000000E+05 0.000000000000E+00 0.000000000000E+00 0.000000000000E+00
E14 2019 01 05 00 10 00 6.464660691563E-03-5.655920176650E-12 0.000000000000E+00
     9.700000000000E+01-1.940625000000E+01 1.208978930254E-09 1.008642404222E+00
    -3.663823008537E-06 1.663878146792E-01-4.438683390617E-06 5.289377056122E+03
     5.190000000000E+05 6.686896085739E-06-1.339960152639E+00-3.278255462646E-07
     8.825883841031E-01 4.263437500000E+02 1.452247107144E+00-1.663283568151E-09
    -3.132273328900E-10 2.580000000000E+02 2.034000000000E+03 0.000000000000E+00
     3.120000000000E+00 5.600000000000E+01 3.306195139885E-08 0.000000000000E+00
     5.197000000000E+05 0.000000000000E+00 0.000000000000E+00 0.000000000000E+00
E18 2019 01 05 00 10 00 5.630399624351E-03-2.863487225113E-11 0.000000000000E+00
     9.700000000000E+01-2.120000000000E+02 3.831588172456E-09-2.163004929929E+00
    -6.781890988350E-06 1.664199887309E-01-6.500631570816E-06 5.289399456024E+03
     5.190000000000E+05 1.860782504082E-06-1.322744140620E+00 4.209578037262E-07
     8.817677338740E-01 4.067500000000E+02 1.436636397558E+00-5.877387673931E-09
     5.396653363703E-10 2.580000000000E+02 2.034000000000E+03 0.000000000000E+00
     3.120000000000E+00 5.600000000000E+01 1.420266926289E-08 0.000000000000E+00
     5.197000000000E+05 0.000000000000E+00 0.000000000000E+00 0.000000000000E+00
E21 2019 01 05 00 10 00-5.128316697665E-04-2.003730514843E-12 0.000000000000E+00
     9.700000000000E+01 2.073437500000E+02 2.417600702773E-09 1.828148802536E-01
     9.629875421524E-06 4.757230635732E-05 9.745359420776E-06 5.440640029907E+03
     5.190000000000E+05 3.911554813385E-08-2.828005543977E+00 1.490116119385E-08
     9.899178471718E-01 1.480312500000E+02-3.606075232422E-01-5.165215151944E-09
     1.035757429169E-10 2.580000000000E+02 2.034000000000E+03 0.000000000000E+00
     3.120000000000E+00 0.000000000000E+00-2.561137080193E-09 0.000000000000E+00
     5.197000000000E+05 0.000000000000E+00 0.000000000000E+00 0.000000000000E+00
E25 2019 01 05 00 10 00 1.933447376359E-03-1.135447291745E-11 0.000000000000E+00
     9.700000000000E+01 1.722187500000E+02 2.521890761159E-09-1.950445115685E+00
     8.121132850647E-06 2.183206379414E-04 1.048296689987E-05 5.440634895325E+03
     5.190000000000E+05-3.725290298462E-08-2.828014397557E+00-3.911554813385E-08
     9.899232350991E-01 1.299375000000E+02-1.367400720014E+00-5.194502086148E-09
     8.928943354902E-11 2.580000000000E+02 2.034000000000E+03 0.000000000000E+00
     3.120000000000E+00 0.000000000000E+00-1.396983861923E-09 0.000000000000E+00
     5.197000000000E+05 0.000000000000E+00 0.000000000000E+00 0.000000000000E+00
E26 2019 01 05 00 10 00 5.056426976807E-03-4.347100457380E-11 0.000000000000E+00
     9.700000000000E+01-2.109375000000E+02 2.778330014311E-09-1.681041607959E-01
    -9.723007678986E-06 3.243653336540E-04 5.485489964485E-06 5.440613603592E+03
     5.190000000000E+05 1.676380634308E-08-7.360543505896E-01 4.656612873077E-08
     9.783604022835E-01 2.304687500000E+02-2.115131191796E+00-5.590590013371E-09
    -3.821587755898E-10 2.580000000000E+02 2.034000000000E+03 0.000000000000E+00
     3.120000000000E+00 0.000000000000E+00 1.164153218269E-09 0.000000000000E+00
     5.197000000000E+05 0.000000000000E+00 0.000000000000E+00 0.000000000000E+00
E30 2019 01 05 00 10 00 5.214309901930E-03-3.052491592825E-11 0.000000000000E+00
     9.700000000000E+01 1.865312500000E+02 2.511176029133E-09 8.854169362094E-01
     8.750706911087E-06 2.949120244011E-04 9.281560778618E-06 5.440623115540E+03
     5.190000000000E+05 1.117587089539E-08-2.821981162477E+00 2.048909664154E-08
     9.879047870455E-01 1.544375000000E+02 4.889157669956E-01-5.204859660440E-09
     6.071681481333E-11 2.580000000000E+02 2.034000000000E+03 0.000000000000E+00
     3.120000000000E+00 0.000000000000E+00-3.259629011154E-09 0.000000000000E+00
     5.197000000000E+05 0.000000000000E+00 0.000000000000E+00 0.000000000000E+00
E33 2019 01 05 00 10 00 8.478664676659E-04-7.105427357601E-14 0.000000000000E+00
     9.700000000000E+01-2.206250000000E+02 2.740828452221E-09-1.555859413870E+00
    -1.027807593346E-05 3.528292290866E-04 4.818663001060E-06 5.440600402832E+03
     5.190000000000E+05 3.539025783539E-08-7.450310646200E-01 7.450580596924E-09
     9.852392376603E-01 2.471250000000E+02-1.519316339064E+00-5.576660861738E-09
    -4.157316026042E-10 2.580000000000E+02 2.034000000000E+03 0.000000000000E+00
     3.120000000000E+00 5.600000000000E+01-7.916241884232E-09 0.000000000000E+00
     5.197000000000E+05 0.000000000000E+00 0.000000000000E+00 0.000000000000E+00
E36 2019 01 05 00 10 00 7.634440553375E-04-4.533262654149E-12 0.000000000000E+00
     9.700000000000E+01-1.908437500000E+02 2.682611741547E-09 2.499496645085E+00
    -8.899718523026E-06 3.222306258976E-04 4.516914486885E-06 5.440606084824E+03
     5.190000000000E+05 1.676380634308E-08-7.450056274005E-01-7.450580596924E-09
     9.852474519453E-01 2.535937500000E+02-1.645927039011E+00-5.525944463482E-09
    -3.346567969417E-10 2.580000000000E+02 2.034000000000E+03 0.000000000000E+00
     3.120000000000E+00 5.600000000000E+01 9.313225746155E-10 0.000000000000E+00
     5.197000000000E+05 0.000000000000E+00 0.000000000000E+00 0.000000000000E+00
E24 2019 01 05 00 00 00 6.302661960945E-03-1.973887719942E-11 0.000000000000E+00
     9.600000000000E+01 1.737187500000E+02 2.511533186867E-09-3.072818175600E+00
     8.035451173782E-06 4.644579021260E-04 1.066364347935E-05 5.440622735977E+03
     5.184000000000E+05-1.117587089539E-08-2.821922258080E+00-2.980232238770E-08
     9.879205558394E-01 1.251562500000E+02 4.432980840703E-01-5.188787562401E-09
     8.178912113090E-11 2.580000000000E+02 2.034000000000E+03 0.000000000000E+00
     3.120000000000E+00 0.000000000000E+00 4.330649971962E-08 0.000000000000E+00
     5.197500000000E+05 0.000000000000E+00 0.000000000000E+00 0.000000000000E+00
E24 2019 01 05 00 00 00 6.302667548880E-03-1.972466634470E-11 0.000000000000E+00
     9.600000000000E+01 1.737187500000E+02 2.511533186867E-09-3.072818175600E+00
     8.035451173782E-06 4.644579021260E-04 1.066364347935E-05 5.440622735977E+03
     5.184000000000E+05-1.117587089539E-08-2.821922258080E+00-2.980232238770E-08
     9.879205558394E-01 1.251562500000E+02 4.432980840703E-01-5.188787562401E-09
     8.178912113090E-11 5.210000000000E+02 2.034000000000E+03 0.000000000000E+00
     3.120000000000E+00 0.000000000000E+00 4.330649971962E-08 4.842877388000E-08
     5.197750000000E+05 0.000000000000E+00 0.000000000000E+00 0.000000000000E+00
